[{"OBJECT_NAME":"VSP RF C1","OBJECT_ID":"2024-043AQ","EPOCH":"2026-03-09T21:56:05.358624","MEAN_MOTION":15.29409663,"ECCENTRICITY":0.00093965,"INCLINATION":97.5441,"RA_OF_ASC_NODE":205.1792,"ARG_OF_PERICENTER":219.6172,"MEAN_ANOMALY":140.4382,"EPHEMERIS_TYPE":0,"CLASSIFICATION_TYPE":"U","NORAD_CAT_ID":59136,"ELEMENT_SET_NO":999,"REV_AT_EPOCH":11190,"BSTAR":0.00026222052,"MEAN_MOTION_DOT":7.409e-5,"MEAN_MOTION_DDOT":0},{"OBJECT_NAME":"STARLINK-36085","OBJECT_ID":"2025-294F","EPOCH":"2026-03-09T22:34:48.742752","MEAN_MOTION":15.27594472,"ECCENTRICITY":0.00014126,"INCLINATION":43.0019,"RA_OF_ASC_NODE":36.9951,"ARG_OF_PERICENTER":245.2775,"MEAN_ANOMALY":114.793,"EPHEMERIS_TYPE":0,"CLASSIFICATION_TYPE":"U","NORAD_CAT_ID":67035,"ELEMENT_SET_NO":999,"REV_AT_EPOCH":1483,"BSTAR":0.0015273275,"MEAN_MOTION_DOT":0.00042025,"MEAN_MOTION_DDOT":0}]
